TEMPEST-D               
1 43547U 98067NV  20117.72507664  .00004533  00000-0  57027-4 0  9991
2 43547  51.6366 212.9111 0004483 221.3100 138.7556 15.61920693101433
RAINCUBE                
1 43548U 98067NW  20117.80692694  .00023707  00000-0  18282-3 0  9992
2 43548  51.6328 194.5723 0003627 275.6812  84.3772 15.71828649102130
HALOSAT                 
1 43549U 98067NX  20117.65974840  .00025333  00000-0  19912-3 0  9990
2 43549  51.6348 195.9041 0003208 280.0873  79.9763 15.71331242101668
ENDUROSAT ONE           
1 43551U 98067NZ  20117.66920644  .00037990  00000-0  23003-3 0  9995
2 43551  51.6345 186.8750 0004012 302.6266  57.4346 15.77174994102197
EQUISAT                 
1 43552U 98067PA  20117.64687512  .00022777  00000-0  17530-3 0  9993
2 43552  51.6351 194.3569 0004320 280.5357  79.5154 15.71899771102052
AEROCUBE 12A            
1 43556U 18046C   20117.76208074  .00000900  00000-0  43273-4 0  9999
2 43556  51.6434 353.9058 0008916 109.0776 251.1170 15.29656712 99464
AEROCUBE 12B            
1 43557U 18046D   20117.68292792  .00001087  00000-0  50061-4 0  9991
2 43557  51.6435 354.8676 0008972 109.0377 251.1576 15.29391858 99390
UITMSAT-1               
1 43589U 98067PD  20117.62387750  .00029818  00000-0  20890-3 0  9998
2 43589  51.6307 193.2861 0004404 298.2950  61.7604 15.73948744 97800
MAYA-1                  
1 43590U 98067PE  20117.48981355  .00025785  00000-0  18131-3 0  9999
2 43590  51.6309 193.9009 0004525 297.9706  62.0834 15.73948940 97711
BHUTAN-1                
1 43591U 98067PF  20117.91106794  .00031764  00000-0  22093-3 0  9990
2 43591  51.6318 191.5207 0004590 298.9469  61.1070 15.74081143 97788
SIRIUSSAT-1             
1 43595U 98067PG  20117.76140949  .00025423  00000-0  19422-3 0  9994
2 43595  51.6314 196.4872 0001923 287.5981  72.4807 15.72010441 96884
SIRIUSSAT-2             
1 43596U 98067PH  20117.69258767  .00025768  00000-0  19774-3 0  9997
2 43596  51.6326 197.5978 0002046 275.4964  84.5801 15.71895022 96862
TANUSHA-3               
1 43597U 98067PJ  20117.89851864  .00055436  00000-0  29897-3 0  9999
2 43597  51.6296 186.7716 0003576 330.7280  29.3520 15.79593672 97022
SURFSAT                 
1 43614U 18070B   20117.71496708  .00002539  00000-0  65879-4 0  9995
2 43614  93.0208 133.2098 0015812 166.7232 193.4441 15.38948233 90520
CP7 (DAVE)              
1 43615U 18070C   20117.67669314  .00002417  00000-0  62993-4 0  9995
2 43615  93.0210 133.1873 0015961 166.5245 193.6438 15.38815591 90518
ELFIN-B                 
1 43616U 18070D   20117.76060717  .00003233  00000-0  80819-4 0  9992
2 43616  93.0173 133.1495 0016395 168.2341 191.9301 15.40054768 90564
ELFIN-A                 
1 43617U 18070E   20117.79976787  .00003816  00000-0  94865-4 0  9992
2 43617  93.0225 133.6346 0015923 164.5242 195.6503 15.40217902 90575
CUBEBEL-1 (BSUSAT-1)    
1 43666U 18083E   20118.15476071  .00000905  00000-0  47555-4 0  9992
2 43666  97.4927 145.1166 0015077 172.7021 261.1125 15.18163422 82831
DEBRISSAT-2             
1 43680U 98067PR  20117.86922984  .00191324  25054-4  53113-3 0  9996
2 43680  51.6286 178.2853 0008132 357.6856   2.4112 15.93343809105864
CICERO 10               
1 43690U 18088A   20117.16207709  .00000905  00000-0  39855-4 0  9998
2 43690  85.0346 112.7787 0016498 135.4620 224.7950 15.20155517 80810
IRVINE01                
1 43693U 18088D   20117.51229771  .00002521  00000-0  10609-3 0  9994
2 43693  85.0320 111.3922 0020114 118.5245 241.8025 15.22651312 80949
PROXIMA I               
1 43694U 18088E   20117.54262976  .00000982  00000-0  41096-4 0  9996
2 43694  85.0289 111.1894 0021482 111.7343 248.6188 15.21885518 80955
PROXIMA II              
1 43696U 18088G   20117.54093252  .00000980  00000-0  41000-4 0  9990
2 43696  85.0290 111.1936 0021527 111.6744 248.6793 15.21888120 80943
FACSAT-1                
1 43721U 18096C   20118.10297568  .00001298  00000-0  51524-4 0  9992
2 43721  97.4229 191.9519 0016204 307.4170  52.5593 15.27093203 78558
CENTAURI-2              
1 43722U 18096D   20117.81826822  .00001822  00000-0  70134-4 0  9992
2 43722  97.4239 191.8964 0016193 308.4008  51.5776 15.27577508 78514
INNOSAT-2               
1 43738U 18096V   20117.73439879  .00002476  00000-0  87143-4 0  9996
2 43738  97.4250 193.5700 0022109 315.8303  44.1171 15.30089009 78622
SIRION PATHFINDER-2     
1 43759U 18099B   20117.71585895 -.00000225  00000-0 -15220-4 0  9999
2 43759  97.7079 190.2502 0014239   2.2039 357.9242 14.95256449 76197
CORVUS-BC 4             
1 43767U 18099K   20117.83871576 -.00000099  00000-0 -38474-5 0  9991
2 43767  97.7062 189.8378 0011879   7.3019 352.8372 14.94702462 76192
MOVE-II                 
1 43780U 18099Y   20117.73283875  .00000580  00000-0  57724-4 0  9995
2 43780  97.7083 190.1839 0013589  14.3233 345.8371 14.95349369 76187
SPACEBEE-7              
1 43816U 18099BL  20118.08382943  .00000842  00000-0  80805-4 0  9997
2 43816  97.7099 190.8891 0013026 358.0614   2.0554 14.95653424 75810
SPACEBEE-5              
1 43817U 18099BM  20117.85668988  .00000721  00000-0  68968-4 0  9990
2 43817  97.7142 191.0328 0012681 358.3133   1.8043 14.96207566 75793
SPACEBEE-6              
1 43818U 18099BN  20117.65220357  .00000203  00000-0  23349-4 0  9992
2 43818  97.7111 190.5792 0013057 358.5412   1.5769 14.95826847 75902
SHIELDS 1               
1 43850U 18104B   20117.76669264  .00000041  00000-0  00000-0 0  9996
2 43850  85.0329 209.5079 0012398 259.5190 100.4726 15.21345029 75616
STF-1                   
1 43852U 18104D   20117.77537544  .00000041  00000-0  00000-0 0  9994
2 43852  85.0344 210.0057 0012220 274.9361  85.0519 15.21188067 75595
ZACUBE-2                
1 43907U 18111AH  20117.86350953  .00000543  00000-0  24809-4 0  9994
2 43907  97.2699  19.1692 0020669 330.2023  29.8037 15.24539208 74156
LUME 1                  
1 43908U 18111AJ  20117.99900434  .00001083  00000-0  46100-4 0  9992
2 43908  97.2699  19.4381 0020431 329.5250  30.4799 15.24946115 74180
AOBA VELOX-IV           
1 43940U 19003J   20118.27310222  .00002067  00000-0  85336-4 0  9998
2 43940  97.2326 171.2970 0025308  47.6591  17.0299 15.24838873 70855
CATSAT-2                
1 44029U 98067PV  20117.83049746  .00018242  00000-0  19638-3 0  9998
2 44029  51.6385 217.4177 0003857 259.8135 100.2424 15.63772046 70443
DELPHINI                
1 44030U 98067PW  20117.75000689  .00017390  00000-0  18183-3 0  9991
2 44030  51.6345 216.7905 0003769 263.1062  96.9504 15.64556074 70410
UNITE                   
1 44031U 98067PX  20117.83382580  .00009887  00000-0  12392-3 0  9992
2 44031  51.6373 221.9044 0002699 248.5804 111.4901 15.60455346 70359
TECHEDSAT 8             
1 44032U 98067PY  20111.15468586  .13178104  12516-4  85387-3 0  9999
2 44032  51.6107 221.1148 0008059 315.3167  44.7209 16.40789031 69743
CATSAT-1                
1 44033U 98067PZ  20117.89421060  .00016734  00000-0  18069-3 0  9993
2 44033  51.6385 217.0986 0003614 260.2806  99.7781 15.63767070 70364
RAAVANA-1               
1 44329U 98067QE  20117.73300133  .00010642  00000-0  15113-3 0  9990
2 44329  51.6393 233.2750 0005726 169.2991 190.8124 15.56994968 48942
UGUISU                  
1 44330U 98067QF  20117.61461962  .00010176  00000-0  14522-3 0  9992
2 44330  51.6388 233.9805 0005707 166.9897 193.1243 15.56920291 48906
NEPALISAT-1             
1 44331U 98067QG  20117.59797771  .00010685  00000-0  15157-3 0  9990
2 44331  51.6391 233.8725 0005735 169.9764 190.1343 15.57021539 48915
SPOOQY-1                
1 44332U 98067QH  20117.72691713  .00010422  00000-0  14843-3 0  9995
2 44332  51.6392 233.2307 0004724 172.7721 187.3340 15.56948492 48896
SPACEBEE-9              
1 44370U 19037F   20117.87971330  .00008821  00000-0  20462-3 0  9993
2 44370  45.0138  43.9661 0013484 244.2990 115.6497 15.42754048 46632
SPACEBEE-8              
1 44371U 19037G   20118.14627669  .00016117  00000-0  32571-3 0  9999
2 44371  45.0145  38.3646 0010464 248.6473 111.3290 15.46304730 46717
IOD-1 GEMS              
1 44385U 98067QK  20117.65514924  .00015024  00000-0  19720-3 0  9995
2 44385  51.6406 232.7943 0001991 124.0759 236.0423 15.58754818 46413
MOVE-IIB                
1 44398U 19038N   20118.14030023  .00001100  00000-0  67090-4 0  9992
2 44398  97.5319  80.0439 0023962 307.0877  52.8163 15.12223132 44827
SONATE                  
1 44400U 19038Q   20117.83226494  .00000511  00000-0  33522-4 0  9998
2 44400  97.5351  79.7585 0023923 306.2802  53.6218 15.11909973 44777
LUCKY-7                 
1 44406U 19038W   20117.59212504  .00000623  00000-0  39751-4 0  9998
2 44406  97.5348  79.6081 0023361 306.9883  52.9209 15.12163515 44734
BEESAT 9                
1 44412U 19038AC  20117.46081573  .00000855  00000-0  53088-4 0  9997
2 44412  97.5340  79.4598 0021575 313.9309  46.0140 15.12222484 44414
JAISAT-1                
1 44419U 19038F   20117.82844308  .00000925  00000-0  56354-4 0  9994
2 44419  97.5341  80.0478 0020404 312.0106  47.9386 15.12706236 44797
SWIATOWID               
1 44426U 98067QL  20118.15523828  .00018750  00000-0  23853-3 0  9991
2 44426  51.6416 229.9849 0002398 126.6196 297.3374 15.59401273 46508
KRAKSAT                 
1 44427U 98067QM  20117.74867981  .00007560  00000-0  11632-3 0  9996
2 44427  51.6408 235.6609 0003443 118.9813 241.1523 15.55300474 46432
VCC A                   
1 44428U 98067QN  20117.57688912  .00009171  00000-0  13411-3 0  9990
2 44428  51.6409 235.2676 0002490 140.2498 219.8676 15.56402401 46426
ENTRYSAT                
1 44429U 98067QP  20117.70462651  .00011520  00000-0  16181-3 0  9994
2 44429  51.6393 233.8524 0002078 130.3883 229.7290 15.57206598 46450
VCC C                   
1 44430U 98067QQ  20117.58485817  .00015438  00000-0  20713-3 0  9999
2 44430  51.6391 233.8133 0001842 147.0673 213.0435 15.58142892 45279
